NORAD_CAT_ID,OBJECT_NAME,OBJECT_TYPE,EPOCH,MEAN_MOTION,ECCENTRICITY,INCLINATION,RA_OF_ASC_NODE,ARG_OF_PERICENTER,MEAN_ANOMALY,BSTAR,MEAN_MOTION_DOT,MEAN_MOTION_DDOT,TLE_LINE0,TLE_LINE1,TLE_LINE2,SEMIMAJOR_AXIS,PERIOD,APOGEE,PERIGEE,DECAYED
55779.0,STARLINK-5817,PAYLOAD,2024-01-20 03:36:40,14.98328156,0.0002572,70.0005,9.7537,260.2527,99.8342,3.1685e-06,-5.5e-07,0.0,0 STARLINK-5817,1 55779U 23028AQ  24020.15047289 -.00000055  00000-0  31685-5 0  9991,2 55779  70.0005   9.7537 0002572 260.2527  99.8342 14.98328156 50263,6950.199,96.107,573.851,570.276,0.0
55779.0,STARLINK-5817,PAYLOAD,2024-01-20 08:25:05,14.98328652,0.000256,70.0006,9.2488,261.2507,98.8363,8.8272e-06,1.2e-07,0.0,0 STARLINK-5817,1 55779U 23028AQ  24020.35075263  .00000012  00000-0  88272-5 0  9992,2 55779  70.0006   9.2488 0002560 261.2507  98.8363 14.98328652 50296,6950.197,96.107,573.841,570.283,0.0
55779.0,STARLINK-5817,PAYLOAD,2024-01-20 22:50:17,14.98328571,0.0002531,70.0007,7.7336,260.5667,99.5206,-2.0665e-05,-3.39e-06,0.0,0 STARLINK-5817,1 55779U 23028AQ  24020.95159369 -.00000339  00000-0 -20665-4 0  9993,2 55779  70.0007   7.7336 0002531 260.5667  99.5206 14.98328571 50383,6950.197,96.107,573.821,570.303,0.0
55779.0,STARLINK-5817,PAYLOAD,2024-01-21 03:38:41,14.98328044,0.0002565,70.0007,7.2286,257.3921,102.6951,-2.8265e-05,-4.3e-06,0.0,0 STARLINK-5817,1 55779U 23028AQ  24021.15187410 -.00000430  00000-0 -28265-4 0  9990,2 55779  70.0007   7.2286 0002565 257.3921 102.6951 14.98328044 50418,6950.199,96.107,573.847,570.281,0.0
55779.0,STARLINK-5817,PAYLOAD,2024-01-21 06:50:58,14.98328203,0.0002551,70.0009,6.8923,257.0886,102.9989,-2.4684e-05,-3.87e-06,0.0,0 STARLINK-5817,1 55779U 23028AQ  24021.28539411 -.00000387  00000-0 -24684-4 0  9998,2 55779  70.0009   6.8923 0002551 257.0886 102.9989 14.98328203 50438,6950.198,96.107,573.836,570.29,0.0
55779.0,STARLINK-5817,PAYLOAD,2024-01-21 22:52:18,14.98330986,0.0002755,70.0004,5.2088,268.3676,91.7167,1.3841e-05,7.2e-07,0.0,0 STARLINK-5817,1 55779U 23028AQ  24021.95299146  .00000072  00000-0  13841-4 0  9992,2 55779  70.0004   5.2088 0002755 268.3676  91.7167 14.98330986 50531,6950.19,96.107,573.97,570.14,0.0
55779.0,STARLINK-5817,PAYLOAD,2024-01-22 03:40:42,14.98330618,0.0002771,70.0004,4.7037,267.6937,92.3905,7.6214e-06,-2e-08,0.0,0 STARLINK-5817,1 55779U 23028AQ  24022.15327164 -.00000002  00000-0  76214-5 0  9995,2 55779  70.0004   4.7037 0002771 267.6937  92.3905 14.98330618 50561,6950.191,96.107,573.982,570.13,0.0
55779.0,STARLINK-5817,PAYLOAD,2024-01-22 06:52:58,14.98331931,0.0002752,70.0005,4.3673,267.6668,92.4176,2.3818e-05,1.91e-06,0.0,0 STARLINK-5817,1 55779U 23028AQ  24022.28679030  .00000191  00000-0  23818-4 0  9990,2 55779  70.0005   4.3673 0002752 267.6668  92.4176 14.98331931 50586,6950.187,96.107,573.965,570.139,0.0
55779.0,STARLINK-5817,PAYLOAD,2024-01-22 22:54:19,14.98327699,0.0002767,70.0006,2.6841,268.1024,91.9818,5.9946e-07,-8.6e-07,0.0,0 STARLINK-5817,1 55779U 23028AQ  24022.95439346 -.00000086  00000-0  59946-6 0  9995,2 55779  70.0006   2.6841 0002767 268.1024  91.9818 14.98327699 50687,6950.2,96.107,573.988,570.142,0.0
55779.0,STARLINK-5817,PAYLOAD,2024-01-23 03:42:43,14.98328533,0.0002764,70.0007,2.179,268.0489,92.0353,9.3851e-06,1.9e-07,0.0,0 STARLINK-5817,1 55779U 23028AQ  24023.15467280  .00000019  00000-0  93851-5 0  9993,2 55779  70.0007   2.1790 0002764 268.0489  92.0353 14.98328533 50715,6950.197,96.107,573.983,570.141,0.0
55779.0,STARLINK-5817,PAYLOAD,2024-01-23 06:54:59,14.98331781,0.0002709,70.0007,1.8422,267.0303,93.0546,6.9701e-05,7.39e-06,0.0,0 STARLINK-5817,1 55779U 23028AQ  24023.28818899  .00000739  00000-0  69701-4 0  9998,2 55779  70.0007   1.8422 0002709 267.0303  93.0546 14.98331781 50732,6950.187,96.107,573.935,570.17,0.0
55779.0,STARLINK-5817,PAYLOAD,2024-01-23 08:31:07,14.98333592,0.0002701,70.0008,1.6742,266.9403,93.1447,6.7084e-05,7.08e-06,0.0,0 STARLINK-5817,1 55779U 23028AQ  24023.35494776  .00000708  00000-0  67084-4 0  9998,2 55779  70.0008   1.6742 0002701 266.9403  93.1447 14.98333592 50741,6950.182,96.107,573.924,570.17,0.0
55779.0,STARLINK-5817,PAYLOAD,2024-01-23 22:56:20,14.98329316,0.0002405,70.0018,0.1614,249.7374,110.3527,-1.0151e-05,-2.14e-06,0.0,0 STARLINK-5817,1 55779U 23028AQ  24023.95579176 -.00000214  00000-0 -10151-4 0  9999,2 55779  70.0018   0.1614 0002405 249.7374 110.3527 14.98329316 50831,6950.195,96.107,573.732,570.388,0.0
55779.0,STARLINK-5817,PAYLOAD,2024-01-24 08:33:09,14.98324108,0.0002498,70.0016,359.1511,255.1586,104.9296,-7.203e-05,-9.52e-06,0.0,0 STARLINK-5817,1 55779U 23028AQ  24024.35635766 -.00000952  00000-0 -72030-4 0  9995,2 55779  70.0016 359.1511 0002498 255.1586 104.9296 14.98324108 50892,6950.211,96.107,573.812,570.34,0.0
55779.0,STARLINK-5817,PAYLOAD,2024-01-24 22:58:21,14.98332106,0.0002928,70.0005,357.6357,263.0552,97.0274,-1.4778e-05,-2.69e-06,0.0,0 STARLINK-5817,1 55779U 23028AQ  24024.95719085 -.00000269  00000-0 -14778-4 0  9994,2 55779  70.0005 357.6357 0002928 263.0552  97.0274 14.98332106 50985,6950.186,96.107,574.086,570.016,0.0
55779.0,STARLINK-5817,PAYLOAD,2024-01-25 03:46:45,14.98331465,0.0002475,70.0022,357.1324,241.3475,118.7436,1.6889e-05,1.09e-06,0.0,0 STARLINK-5817,1 55779U 23028AQ  24025.15746941  .00000109  00000-0  16889-4 0  9994,2 55779  70.0022 357.1324 0002475 241.3475 118.7436 14.98331465 51016,6950.188,96.107,573.774,570.333,0.0
55779.0,STARLINK-5817,PAYLOAD,2024-01-25 06:59:01,14.98333206,0.0002557,70.0017,356.7954,246.1008,113.9883,2.4728e-05,2.02e-06,0.0,0 STARLINK-5817,1 55779U 23028AQ  24025.29098803  .00000202  00000-0  24728-4 0  9991,2 55779  70.0017 356.7954 0002557 246.1008 113.9883 14.98333206 51030,6950.183,96.107,573.825,570.271,0.0
55779.0,STARLINK-5817,PAYLOAD,2024-01-25 23:00:22,14.98320743,0.0002533,70.0019,355.1118,244.9642,115.1255,0.00015013,1.698e-05,0.0,0 STARLINK-5817,1 55779U 23028AQ  24025.95859095  .00001698  00000-0  15013-3 0  9998,2 55779  70.0019 355.1118 0002533 244.9642 115.1255 14.98320743 51131,6950.222,96.108,573.847,570.326,0.0
55779.0,STARLINK-5817,PAYLOAD,2024-01-26 03:48:46,14.98326316,0.0002571,70.0016,354.606,255.6649,104.4225,5.5737e-05,5.72e-06,0.0,0 STARLINK-5817,1 55779U 23028AQ  24026.15887140  .00000572  00000-0  55737-4 0  9991,2 55779  70.0016 354.6060 0002571 255.6649 104.4225 14.98326316 51169,6950.204,96.107,573.856,570.282,0.0
55779.0,STARLINK-5817,PAYLOAD,2024-01-26 07:01:02,14.98327497,0.0002662,70.0012,354.2691,258.8215,101.2644,5.179e-05,5.25e-06,0.0,0 STARLINK-5817,1 55779U 23028AQ  24026.29239115  .00000525  00000-0  51790-4 0  9992,2 55779  70.0012 354.2691 0002662 258.8215 101.2644 14.98327497 51189,6950.201,96.107,573.916,570.215,0.0
55779.0,STARLINK-5817,PAYLOAD,2024-01-27 03:50:47,14.98331662,0.0002558,70.0022,352.0824,242.086,118.004,-9.7495e-06,-2.09e-06,0.0,0 STARLINK-5817,1 55779U 23028AQ  24027.16026919 -.00000209  00000-0 -97495-5 0  9999,2 55779  70.0022 352.0824 0002558 242.0860 118.0040 14.98331662 51319,6950.188,96.107,573.831,570.275,0.0
55779.0,STARLINK-5817,PAYLOAD,2024-01-27 07:03:03,14.98333052,0.0002564,70.0012,351.7436,257.4853,102.6019,7.6413e-06,-2e-08,0.0,0 STARLINK-5817,1 55779U 23028AQ  24027.29378834 -.00000002  00000-0  76413-5 0  9996,2 55779  70.0012 351.7436 0002564 257.4853 102.6019 14.98333052 51334,6950.183,96.107,573.83,570.266,0.0
55779.0,STARLINK-5817,PAYLOAD,2024-01-27 21:28:13,14.9835584,0.0002851,70.0017,350.2296,265.4743,94.609,0.00026649,3.09e-05,0.0,0 STARLINK-5817,1 55779U 23028AQ  24027.89459894  .00003090  00000-0  26649-3 0  9991,2 55779  70.0017 350.2296 0002851 265.4743  94.6090 14.98355840 51421,6950.113,96.105,573.959,569.997,0.0
55779.0,STARLINK-5817,PAYLOAD,2024-01-28 03:52:47,14.9832681,0.0002371,70.0027,349.5572,257.2713,102.8181,-4.3609e-05,-6.13e-06,0.0,0 STARLINK-5817,1 55779U 23028AQ  24028.16166203 -.00000613  00000-0 -43609-4 0  9997,2 55779  70.0027 349.5572 0002371 257.2713 102.8181 14.98326810 51465,6950.203,96.107,573.716,570.42,0.0
55779.0,STARLINK-5817,PAYLOAD,2024-01-28 07:05:04,14.98321518,0.0002414,70.0017,349.2164,264.9048,95.1836,-0.00010675,-1.366e-05,0.0,0 STARLINK-5817,1 55779U 23028AQ  24028.29518787 -.00001366  00000-0 -10675-3 0  9991,2 55779  70.0017 349.2164 0002414 264.9048  95.1836 14.98321518 51485,6950.219,96.108,573.762,570.406,0.0
55779.0,STARLINK-5817,PAYLOAD,2024-01-28 21:30:17,14.98318079,0.0002905,70.0009,347.7022,268.684,91.3986,-0.00016415,-2.05e-05,0.0,0 STARLINK-5817,1 55779U 23028AQ  24028.89603351 -.00002050  00000-0 -16415-3 0  9998,2 55779  70.0009 347.7022 0002905 268.6840  91.3986 14.98318079 51570,6950.23,96.108,574.114,570.076,0.0
55779.0,STARLINK-5817,PAYLOAD,2024-01-29 07:07:05,14.98324913,0.0003001,70.0008,346.6931,271.1308,88.9508,-0.00012374,-1.569e-05,0.0,0 STARLINK-5817,1 55779U 23028AQ  24029.29659087 -.00001569  00000-0 -12374-3 0  9994,2 55779  70.0008 346.6931 0003001 271.1308  88.9508 14.98324913 51635,6950.209,96.107,574.159,569.988,0.0
55779.0,STARLINK-5817,PAYLOAD,2024-01-30 03:56:49,14.98347637,0.000253,70.0007,344.5047,267.2134,92.8736,-0.0003256,-3.977e-05,0.0,0 STARLINK-5817,1 55779U 23028AQ  24030.16445948 -.00003977  00000-0 -32560-3 0  9995,2 55779  70.0007 344.5047 0002530 267.2134  92.8736 14.98347637 51767,6950.138,96.106,573.762,570.245,0.0
55779.0,STARLINK-5817,PAYLOAD,2024-01-30 07:09:05,14.98344412,0.0002822,70.001,344.1679,272.8846,87.1991,-0.00015646,-1.96e-05,0.0,0 STARLINK-5817,1 55779U 23028AQ  24030.29797641 -.00001960  00000-0 -15646-3 0  9995,2 55779  70.0010 344.1679 0002822 272.8846  87.1991 14.98344412 51784,6950.148,96.106,573.975,570.052,0.0
55779.0,STARLINK-5817,PAYLOAD,2024-01-30 23:10:26,14.98320925,0.0002846,70.0012,342.4845,271.0644,89.0188,9.6568e-05,1.059e-05,0.0,0 STARLINK-5817,1 55779U 23028AQ  24030.96558841  .00001059  00000-0  96568-4 0  9996,2 55779  70.0012 342.4845 0002846 271.0644  89.0188 14.98320925 51888,6950.221,96.108,574.064,570.108,0.0
